SARSAT 7 (NOAA 15)      
1 25338U 98030A   22279.12958279  .00000230  00000+0  11427-3 0  9998
2 25338  98.6367 307.1799 0009875 340.8561  19.2247 14.26178066269041
METEOSAT-8 (MSG-1)      
1 27509U 02040B   22278.50329920  .00000124  00000+0  00000+0 0  9995
2 27509   8.2400  50.0293 0002737 133.8459  52.9116  1.00275102 73709
GPS BIIR-08             
1 27663U 03005A   22278.68604896  .00000012  00000+0  00000+0 0  9991
2 27663  55.4427 268.6808 0126746  41.1894 126.4184  2.00557998144228
GPS BIIR-11             
1 28190U 04009A   22278.76604103 -.00000055  00000+0  00000+0 0  9990
2 28190  55.9337 329.6882 0089178 126.3077 253.5751  2.00557854135868
GPS BIIR-13             
1 28474U 04045A   22278.87529035 -.00000100  00000+0  00000+0 0  9998
2 28474  55.3855  19.0242 0202834 280.0652  47.9798  2.00421263131344
SARSAT 10 (NOAA 18)     
1 28654U 05018A   22279.18529442  .00000254  00000+0  16054-3 0  9995
2 28654  98.9397 349.4852 0014464  22.7985 337.3826 14.12785091895708
GPS BIIR-14M            
1 28874U 05038A   22278.69910403 -.00000050  00000+0  00000+0 0  9992
2 28874  55.9955 327.1295 0140207 275.4057  83.5975  2.00568895124751
METEOSAT-9 (MSG-2)      
1 28912U 05049B   22278.85327108  .00000115  00000+0  00000+0 0  9990
2 28912   6.2647  65.5485 0002158 183.3683 118.4859  1.00275392 61495
GOES 13                 
1 29155U 06018A   22278.83802559  .00000020  00000+0  00000+0 0  9998
2 29155   0.8568  95.2338 0006306 118.1171 164.3978  1.00268894 29834
GPS BIIR-16M            
1 29601U 06052A   22278.26755447  .00000018  00000+0  00000+0 0  9999
2 29601  55.4532 267.6402 0082856  75.0180 285.9025  2.00556870116317
GPS BIIR-17M            
1 32260U 07047A   22278.57367157  .00000036  00000+0  00000+0 0  9990
2 32260  53.3426 135.9790 0144150  65.0548 296.5272  2.00568763109724
GPS BIIR-18M            
1 32384U 07062A   22278.55604411 -.00000051  00000+0  00000+0 0  9997
2 32384  56.1179 327.9109 0020559 146.6045 328.5426  2.00568044108423
SARSAT 12 (NOAA 19)     
1 33591U 09005A   22279.12830893  .00000227  00000+0  14785-3 0  9999
2 33591  99.1385 315.5425 0013150 234.8463 125.1476 14.12617755704076
GOES 14                 
1 35491U 09033A   22278.61770602 -.00000110  00000+0  00000+0 0  9998
2 35491   0.3502 266.9371 0017944 307.3558 277.9986  1.00272407 48568
GOES 15                 
1 36411U 10008A   22278.68476308  .00000038  00000+0  00000+0 0  9996
2 36411   0.3105 278.1013 0004359 250.8123 323.7282  1.00266265 46128
GPS BIIF-2              
1 37753U 11036A   22278.72324066 -.00000093  00000+0  00000+0 0  9998
2 37753  56.6515  24.4173 0118289  53.4864 331.8975  2.00565871 82195
GSAT0101 (GALILEO-PFM)  
1 37846U 11060A   22276.77023508 -.00000090  00000+0  00000+0 0  9995
2 37846  57.0331  18.3975 0000951  69.0426 290.9830  1.70474780 68063
GSAT0102 (GALILEO-FM2)  
1 37847U 11060B   22276.71372412 -.00000090  00000+0  00000+0 0  9991
2 37847  57.0340  18.3987 0001499 309.5111  62.6338  1.70475167 68076
LUCH 5A                 
1 37951U 11074B   22278.81538920 -.00000059  00000+0  00000+0 0  9998
2 37951   5.2903  95.5821 0003804  65.0625 314.4280  1.00274357 39659
METEOSAT-10 (MSG-3)     
1 38552U 12035B   22278.85569005  .00000044  00000+0  00000+0 0  9999
2 38552   1.6948  46.8568 0001380 131.7850 153.1089  1.00269975 37317
SARSAT 13 (METOP-B)     
1 38771U 12049A   22279.12999718  .00000150  00000+0  88621-4 0  9994
2 38771  98.7176 337.2594 0001746  85.4858 304.3543 14.21478765521459
GPS BIIF-3              
1 38833U 12053A   22278.67231227 -.00000032  00000+0  00000+0 0  9991
2 38833  53.5226 198.8395 0129730  47.7197 313.3809  2.00563080 72358
GSAT0103 (GALILEO-FM3)  
1 38857U 12055A   22277.98269172  .00000032  00000+0  00000+0 0  9991
2 38857  55.1662 138.6870 0002058 248.7885 111.2853  1.70473650 61975
GSAT0104 (GALILEO-FM4)  
1 38858U 12055B   22278.53922051  .00000035  00000+0  00000+0 0  9999
2 38858  55.1668 138.6732 0000981 136.9702 223.1355  1.70473934 61984
GPS BIIF-4              
1 39166U 13023A   22278.53059031 -.00000044  00000+0  00000+0 0  9998
2 39166  55.6191 323.4656 0104651  38.3101 322.4931  2.00565248 68792
INSAT-3D                
1 39216U 13038B   22278.84560384 -.00000174  00000+0  00000+0 0  9996
2 39216   0.0563  97.9561 0001781 109.2603 193.7813  1.00271355 33554
GPS BIIF-5              
1 39533U 14008A   22278.53312464 -.00000032  00000+0  00000+0 0  9999
2 39533  53.6149 204.3631 0060537 209.6613 149.9958  2.00559565 62594
LUCH 5V                 
1 39727U 14023A   22279.08790802 -.00000284  00000+0  00000+0 0  9997
2 39727   1.7573  76.5361 0003398 132.1919 292.3467  1.00267455548976
GPS BIIF-6              
1 39741U 14026A   22278.81590461 -.00000094  00000+0  00000+0 0  9994
2 39741  56.6114  23.9394 0026612 305.0550  54.7059  2.00580543 61457
GPS BIIF-7              
1 40105U 14045A   22278.40041935  .00000030  00000+0  00000+0 0  9992
2 40105  54.7138 142.4141 0023376 111.3443 248.9936  2.00554665 58989
GSAT0201 (GALILEO 5)    
1 40128U 14050A   22278.16512756 -.00000064  00000+0  00000+0 0  9998
2 40128  50.2076 327.9105 1619701 128.0395 247.7315  1.85519055 53250
GSAT0202 (GALILEO 6)    
1 40129U 14050B   22277.34775704 -.00000060  00000+0  00000+0 0  9998
2 40129  50.2317 327.0067 1616978 128.8200 246.7777  1.85519667 55402
GPS BIIF-8              
1 40294U 14068A   22278.76603480  .00000026  00000+0  00000+0 0  9999
2 40294  55.9024  83.5803 0043073  59.5786 300.8771  2.00579042 58121
GLONASS-K 2             
1 40315U 14075A   22278.53800491  .00000006  00000+0  00000+0 0  9995
2 40315  63.6763 237.3153 0019157 212.0372 328.1038  2.13101428 61071
GPS BIIF-9              
1 40534U 15013A   22278.41436039  .00000007  00000+0  00000+0 0  9992
2 40534  53.6402 260.1375 0071458  19.9795 340.2909  2.00575301 54736
GSAT0203 (GALILEO 7)    
1 40544U 15017A   22277.72332992 -.00000095  00000+0  00000+0 0  9991
2 40544  56.8285  18.3899 0003730 227.3889 132.5929  1.70476096 46161
GSAT0204 (GALILEO 8)    
1 40545U 15017B   22277.97630782 -.00000096  00000+0  00000+0 0  9998
2 40545  56.8346  18.3958 0004017 213.2533 146.7342  1.70475393  9215
GPS BIIF-10             
1 40730U 15033A   22278.57132459 -.00000043  00000+0  00000+0 0  9999
2 40730  55.1150 322.2400 0075406   7.5103 352.6660  2.00572379 52903
METEOSAT-11 (MSG-4)     
1 40732U 15034A   22278.85327105 -.00000021  00000+0  00000+0 0  9993
2 40732   0.5268  73.4468 0000577  69.6816 178.3382  1.00276453 26486
GSAT0205 (GALILEO 9)    
1 40889U 15045A   22278.33021738  .00000011  00000+0  00000+0 0  9992
2 40889  55.5577 258.9270 0004281 352.2972   7.6798  1.70473021 43989
GSAT0206 (GALILEO 10)   
1 40890U 15045B   22277.37780862  .00000021  00000+0  00000+0 0  9998
2 40890  55.5580 258.9489 0003208 327.3414  32.6267  1.70473029 43997
GPS BIIF-11             
1 41019U 15062A   22278.62095816  .00000026  00000+0  00000+0 0  9993
2 41019  55.8900  83.4313 0081351 217.4203 142.0415  2.00562473 50745
ELEKTRO-L 2             
1 41105U 15074A   22279.19441748 -.00000130  00000+0  00000+0 0  9991
2 41105   3.2603  86.8154 0002544 113.8704 229.6854  1.00272028 24978
GSAT0209 (GALILEO 12)   
1 41174U 15079A   22278.13852375  .00000033  00000+0  00000+0 0  9998
2 41174  55.1831 138.3871 0002435 337.8713  22.2146  1.70474094 41748
GSAT0208 (GALILEO 11)   
1 41175U 15079B   22278.35801776  .00000034  00000+0  00000+0 0  9993
2 41175  55.1816 138.3796 0001865 348.7820  11.3111  1.70473968 42161
GPS BIIF-12             
1 41328U 16007A   22278.70879874  .00000033  00000+0  00000+0 0  9997
2 41328  54.9283 143.0999 0062868 229.7758 129.7608  2.00565575 48758
GSAT0211 (GALILEO 14)   
1 41549U 16030A   22278.47680076  .00000010  00000+0  00000+0 0  9991
2 41549  55.7026 258.8633 0004734 311.2877  48.6542  1.70474573 39641
GSAT0210 (GALILEO 13)   
1 41550U 16030B   22278.18280809  .00000013  00000+0  00000+0 0  9994
2 41550  55.7026 258.8727 0004564 284.1200  75.8136  1.70474569 39631
INSAT-3DR               
1 41752U 16054A   22278.84154517 -.00000095  00000+0  00000+0 0  9994
2 41752   0.0949  89.4185 0012221 173.2994 128.7548  1.00271435 22272
GSAT0207 (GALILEO 15)   
1 41859U 16069A   22278.43235774  .00000033  00000+0  00000+0 0  9999
2 41859  54.8442 138.5331 0002228 311.5041  48.5743  1.70472669 36595
GSAT0212 (GALILEO 16)   
1 41860U 16069B   22278.28576711  .00000033  00000+0  00000+0 0  9993
2 41860  54.8413 138.5345 0001932  10.5942 349.5067  1.70472694 36622
GSAT0213 (GALILEO 17)   
1 41861U 16069C   22276.89129383  .00000029  00000+0  00000+0 0  9993
2 41861  54.8432 138.5785 0001893 265.3903  94.6808  1.70472870 36464
GSAT0214 (GALILEO 18)   
1 41862U 16069D   22278.21163185  .00000033  00000+0  00000+0 0  9995
2 41862  54.8420 138.5364 0000990 272.1218  87.9634  1.70472795 36612
GOES 16                 
1 41866U 16071A   22278.83884609 -.00000266  00000+0  00000+0 0  9990
2 41866   0.0741 286.5341 0000545 290.6174  24.1460  1.00271216 21573
GSAT-17                 
1 42815U 17040B   22279.08764642 -.00000276  00000+0  00000+0 0  9995
2 42815   0.0849  90.2652 0005060 153.5465 255.9747  1.00271689 19336
GSAT0215 (GALILEO 19)   
1 43055U 17079A   22277.52819004  .00000019  00000+0  00000+0 0  9998
2 43055  55.6794 258.7202 0004000 279.5998  80.3421  1.70473783 29946
GSAT0216 (GALILEO 20)   
1 43056U 17079B   22277.23375222  .00000022  00000+0  00000+0 0  9990
2 43056  55.6799 258.7280 0005705 280.6588  79.2651  1.70473911 29955
GSAT0217 (GALILEO 21)   
1 43057U 17079C   22277.45401792  .00000020  00000+0  00000+0 0  9995
2 43057  55.6779 258.7215 0005198 290.8486  69.0831  1.70473893 29943
GSAT0218 (GALILEO 22)   
1 43058U 17079D   22278.26063688  .00000012  00000+0  00000+0 0  9995
2 43058  55.6773 258.6968 0006093 277.9797  81.9347  1.70473875 29987
GOES 17                 
1 43226U 18022A   22278.68267028  .00000081  00000+0  00000+0 0  9997
2 43226   0.0671 284.6891 0000400 239.0042 319.0817  1.00271973 16887
